{
  "type": "FeatureCollection",
  "features": [
    {
      "type": "Feature",
      "properties": {
        "norad_id": 40069,
        "name": "METEOR-M 2",
        "group": "weather",
        "lat": 58.26912913710591,
        "lon": -41.03823183520097,
        "alt_km": 817.0712279517602,
        "timestamp": "2025-12-21T16:47:54.371661+00:00",
        "meta_object_name": "METEOR-M 2",
        "meta_object_id": "2014-037A",
        "meta_epoch": "2025-12-21T13:08:28.441824",
        "meta_mean_motion": 14.21390126,
        "meta_eccentricity": 0.0005408,
        "meta_inclination": 98.4904,
        "meta_ra_of_asc_node": 332.7943,
        "meta_arg_of_pericenter": 181.863,
        "meta_mean_anomaly": 178.2529,
        "meta_ephemeris_type": 0,
        "meta_classification_type": "U",
        "meta_norad_cat_id": 40069,
        "meta_element_set_no": 999,
        "meta_rev_at_epoch": 59408,
        "meta_bstar": 9.1838e-05,
        "meta_mean_motion_dot": 1.59e-06,
        "meta_mean_motion_ddot": 0,
        "tle_line1": "1 40069U 14037A   25355.54755141  .00000159  00000+0  91838-4 0  9993",
        "tle_line2": "2 40069  98.4904 332.7943 0005408 181.8630 178.2529 14.21390126594089"
      },
      "geometry": {
        "type": "Point",
        "coordinates": [
          -41.03823183520097,
          58.26912913710591
        ]
      }
    },
    {
      "type": "Feature",
      "properties": {
        "norad_id": 40267,
        "name": "HIMAWARI-8",
        "group": "weather",
        "lat": 0.019915666523268573,
        "lon": 123.14718201322282,
        "alt_km": 35790.17734698464,
        "timestamp": "2025-12-21T16:47:54.371673+00:00",
        "meta_object_name": "HIMAWARI-8",
        "meta_object_id": "2014-060A",
        "meta_epoch": "2025-12-21T12:57:31.239360",
        "meta_mean_motion": 1.00270596,
        "meta_eccentricity": 8.91e-05,
        "meta_inclination": 0.0387,
        "meta_ra_of_asc_node": 133.414,
        "meta_arg_of_pericenter": 163.4755,
        "meta_mean_anomaly": 128.5136,
        "meta_ephemeris_type": 0,
        "meta_classification_type": "U",
        "meta_norad_cat_id": 40267,
        "meta_element_set_no": 999,
        "meta_rev_at_epoch": 4097,
        "meta_bstar": 0,
        "meta_mean_motion_dot": -2.53e-06,
        "meta_mean_motion_ddot": 0,
        "tle_line1": "1 40267U 14060A   25355.53994490 -.00000253  00000+0  00000+0 0  9992",
        "tle_line2": "2 40267   0.0387 133.4140 0000891 163.4755 128.5136  1.00270596 40970"
      },
      "geometry": {
        "type": "Point",
        "coordinates": [
          123.14718201322282,
          0.019915666523268573
        ]
      }
    },
    {
      "type": "Feature",
      "properties": {
        "norad_id": 40367,
        "name": "FENGYUN 2G",
        "group": "weather",
        "lat": 0.6314480025517342,
        "lon": 81.70181963307118,
        "alt_km": 35799.86104836302,
        "timestamp": "2025-12-21T16:47:54.371685+00:00",
        "meta_object_name": "FENGYUN 2G",
        "meta_object_id": "2014-090A",
        "meta_epoch": "2025-12-21T01:41:07.810656",
        "meta_mean_motion": 1.00261103,
        "meta_eccentricity": 0.00026608,
        "meta_inclination": 5.188,
        "meta_ra_of_asc_node": 75.0029,
        "meta_arg_of_pericenter": 203.8012,
        "meta_mean_anomaly": 295.6309,
        "meta_ephemeris_type": 0,
        "meta_classification_type": "U",
        "meta_norad_cat_id": 40367,
        "meta_element_set_no": 999,
        "meta_rev_at_epoch": 4021,
        "meta_bstar": 0,
        "meta_mean_motion_dot": -2.79e-06,
        "meta_mean_motion_ddot": 0,
        "tle_line1": "1 40367U 14090A   25355.07022929 -.00000279  00000+0  00000+0 0  9992",
        "tle_line2": "2 40367   5.1880  75.0029 0002660 203.8012 295.6309  1.00261103 40212"
      },
      "geometry": {
        "type": "Point",
        "coordinates": [
          81.70181963307118,
          0.6314480025517342
        ]
      }
    },
    {
      "type": "Feature",
      "properties": {
        "norad_id": 40732,
        "name": "METEOSAT-11 (MSG-4)",
        "group": "weather",
        "lat": -2.7260895286389744,
        "lon": -8.302028932124886,
        "alt_km": 35789.6012947467,
        "timestamp": "2025-12-21T16:47:54.371697+00:00",
        "meta_object_name": "METEOSAT-11 (MSG-4)",
        "meta_object_id": "2015-034A",
        "meta_epoch": "2025-12-21T02:58:07.934880",
        "meta_mean_motion": 1.00270116,
        "meta_eccentricity": 8.178e-05,
        "meta_inclination": 2.7571,
        "meta_ra_of_asc_node": 71.9801,
        "meta_arg_of_pericenter": 136.5122,
        "meta_mean_anomaly": 295.1851,
        "meta_ephemeris_type": 0,
        "meta_classification_type": "U",
        "meta_norad_cat_id": 40732,
        "meta_element_set_no": 999,
        "meta_rev_at_epoch": 543,
        "meta_bstar": 0,
        "meta_mean_motion_dot": 8.2e-07,
        "meta_mean_motion_ddot": 0,
        "tle_line1": "1 40732U 15034A   25355.12370295  .00000082  00000+0  00000+0 0  9996",
        "tle_line2": "2 40732   2.7571  71.9801 0000817 136.5122 295.1851  1.00270116  5433"
      },
      "geometry": {
        "type": "Point",
        "coordinates": [
          -8.302028932124886,
          -2.7260895286389744
        ]
      }
    },
    {
      "type": "Feature",
      "properties": {
        "norad_id": 41105,
        "name": "ELEKTRO-L 2",
        "group": "weather",
        "lat": -6.061052395207448,
        "lon": -32.03634085323701,
        "alt_km": 35776.464887579124,
        "timestamp": "2025-12-21T16:47:54.371709+00:00",
        "meta_object_name": "ELEKTRO-L 2",
        "meta_object_id": "2015-074A",
        "meta_epoch": "2025-12-21T09:42:19.444608",
        "meta_mean_motion": 1.00272503,
        "meta_eccentricity": 0.0003492,
        "meta_inclination": 6.2461,
        "meta_ra_of_asc_node": 72.7254,
        "meta_arg_of_pericenter": 209.0938,
        "meta_mean_anomaly": 299.5117,
        "meta_ephemeris_type": 0,
        "meta_classification_type": "U",
        "meta_norad_cat_id": 41105,
        "meta_element_set_no": 999,
        "meta_rev_at_epoch": 3672,
        "meta_bstar": 0,
        "meta_mean_motion_dot": -9.9e-07,
        "meta_mean_motion_ddot": 0,
        "tle_line1": "1 41105U 15074A   25355.40439172 -.00000099  00000+0  00000+0 0  9995",
        "tle_line2": "2 41105   6.2461  72.7254 0003492 209.0938 299.5117  1.00272503 36720"
      },
      "geometry": {
        "type": "Point",
        "coordinates": [
          -32.03634085323701,
          -6.061052395207448
        ]
      }
    },
    {
      "type": "Feature",
      "properties": {
        "norad_id": 41752,
        "name": "INSAT-3DR",
        "group": "weather",
        "lat": -0.034048875988166666,
        "lon": 56.56663639628066,
        "alt_km": 35835.17362924876,
        "timestamp": "2025-12-21T16:47:54.371721+00:00",
        "meta_object_name": "INSAT-3DR",
        "meta_object_id": "2016-054A",
        "meta_epoch": "2025-12-21T11:50:18.064032",
        "meta_mean_motion": 1.00271559,
        "meta_eccentricity": 0.0014142,
        "meta_inclination": 0.1129,
        "meta_ra_of_asc_node": 86.3015,
        "meta_arg_of_pericenter": 185.3573,
        "meta_mean_anomaly": 70.2173,
        "meta_ephemeris_type": 0,
        "meta_classification_type": "U",
        "meta_norad_cat_id": 41752,
        "meta_element_set_no": 999,
        "meta_rev_at_epoch": 3403,
        "meta_bstar": 0,
        "meta_mean_motion_dot": -5.4e-07,
        "meta_mean_motion_ddot": 0,
        "tle_line1": "1 41752U 16054A   25355.49326463 -.00000054  00000+0  00000+0 0  9990",
        "tle_line2": "2 41752   0.1129  86.3015 0014142 185.3573  70.2173  1.00271559 34031"
      },
      "geometry": {
        "type": "Point",
        "coordinates": [
          56.56663639628066,
          -0.034048875988166666
        ]
      }
    },
    {
      "type": "Feature",
      "properties": {
        "norad_id": 41836,
        "name": "HIMAWARI-9",
        "group": "weather",
        "lat": 0.03940564792330866,
        "lon": 123.25027979105062,
        "alt_km": 35792.60047668246,
        "timestamp": "2025-12-21T16:47:54.371734+00:00",
        "meta_object_name": "HIMAWARI-9",
        "meta_object_id": "2016-064A",
        "meta_epoch": "2025-12-21T12:57:31.241088",
        "meta_mean_motion": 1.00268672,
        "meta_eccentricity": 0.000155,
        "meta_inclination": 0.0165,
        "meta_ra_of_asc_node": 17.3484,
        "meta_arg_of_pericenter": 316.3268,
        "meta_mean_anomaly": 91.8221,
        "meta_ephemeris_type": 0,
        "meta_classification_type": "U",
        "meta_norad_cat_id": 41836,
        "meta_element_set_no": 999,
        "meta_rev_at_epoch": 3342,
        "meta_bstar": 0,
        "meta_mean_motion_dot": 0,
        "meta_mean_motion_ddot": 0,
        "tle_line1": "1 41836U 16064A   25355.53994492  .00000000  00000+0  00000+0 0  9992",
        "tle_line2": "2 41836   0.0165  17.3484 0001550 316.3268  91.8221  1.00268672 33420"
      },
      "geometry": {
        "type": "Point",
        "coordinates": [
          123.25027979105062,
          0.03940564792330866
        ]
      }
    }
  ]
}